ONEWEB-0560             
1 55145U 23004F   25004.89941561  .00000019  00000+0  16338-4 0  9997
2 55145  87.9104  80.5923 0001737 115.2332 244.8981 13.18687435100084
ONEWEB-0565             
1 55146U 23004G   25004.66546065  .00000035  00000+0  54989-4 0  9995
2 55146  87.9100  80.7074 0002301 114.5285 245.6087 13.18687302100042
ONEWEB-0567             
1 55147U 23004H   25004.65913548  .00000014  00000+0  18865-5 0  9990
2 55147  87.9101  80.6635 0001976 117.8952 242.2381 13.18687011100047
ONEWEB-0569             
1 55148U 23004J   25004.86790719 -.00000129  00000+0 -38883-3 0  9996
2 55148  87.8912  65.2684 0002023 132.1554 227.9748 13.13469611100824
ONEWEB-0570             
1 55149U 23004K   25004.64649779  .00000042  00000+0  74878-4 0  9999
2 55149  87.9101  80.6668 0002550 101.0994 259.0425 13.18686825100031
ONEWEB-0571             
1 55150U 23004L   25004.48843384  .00001902  00000+0  47922-2 0  9995
2 55150  87.9113  80.7062 0002622 122.9574 237.1811 13.18672636100021
ONEWEB-0572             
1 55151U 23004M   25004.32017045  .00000078  00000+0  16855-3 0  9991
2 55151  87.9101 111.2323 0001901 107.8494 252.2845 13.17651980 97838
ONEWEB-0573             
1 55152U 23004N   25004.63384681  .00000099  00000+0  21719-3 0  9997
2 55152  87.9096  80.6883 0002667 115.0757 245.0652 13.18687270100030
